start=new Date('2023-05-21T00:00:00.000Z').valueOf();
sats=[{"MEAN_MOTION_DDOT":"0.0000000000000","TLE_LINE1":"1 48331U 21036BH  23140.94498536  .00023359  00000-0  15800-2 0  9997","BSTAR":"0.00158000000000","CLASSIFICATION_TYPE":"U","MEAN_ELEMENT_THEORY":"SGP4","TLE_LINE2":"2 48331  53.0552  17.3853 0001010  73.7272 286.3828 15.06444539113731","EPOCH":"2023-05-20T22:40:46.735104","OBJECT_ID":"2021-036BH","PERIOD":"95.589","EPHEMERIS_TYPE":"0","APOAPSIS":"547.777","NORAD_CAT_ID":"48331","COUNTRY_CODE":"US","LAUNCH_DATE":"2021-04-29","TIME_SYSTEM":"UTC","RA_OF_ASC_NODE":"17.3853","REV_AT_EPOCH":"11373","SEMIMAJOR_AXIS":"6925.212","MEAN_ANOMALY":"286.3828","REF_FRAME":"TEME","PERIAPSIS":"546.378","OBJECT_TYPE":"PAYLOAD","ARG_OF_PERICENTER":"73.7272","MEAN_MOTION_DOT":"0.00023359","ECCENTRICITY":"0.00010100","INCLINATION":"53.0552","CENTER_NAME":"EARTH","RCS_SIZE":"LARGE","DECAY_DATE":null,"GP_ID":"232207628","MEAN_MOTION":"15.06444539","FILE":"3913175","SITE":"AFETR","OBJECT_NAME":"STARLINK-2514","ELEMENT_SET_NO":"999"},{"TLE_LINE2":"2 48332  53.0552  17.3938 0000832  82.5197 277.5887 15.06447327113736","EPOCH":"2023-05-20T22:39:24.484032","PERIOD":"95.589","OBJECT_ID":"2021-036BJ","EPHEMERIS_TYPE":"0","TLE_LINE1":"1 48332U 21036BJ  23140.94403338  .00021878  00000-0  14812-2 0  9990","MEAN_MOTION_DDOT":"0.0000000000000","BSTAR":"0.00148120000000","CLASSIFICATION_TYPE":"U","MEAN_ELEMENT_THEORY":"SGP4","RA_OF_ASC_NODE":"17.3938","TIME_SYSTEM":"UTC","MEAN_ANOMALY":"277.5887","SEMIMAJOR_AXIS":"6925.204","REV_AT_EPOCH":"11373","REF_FRAME":"TEME","COUNTRY_CODE":"US","APOAPSIS":"547.645","NORAD_CAT_ID":"48332","LAUNCH_DATE":"2021-04-29","ARG_OF_PERICENTER":"82.5197","MEAN_MOTION_DOT":"0.00021878","OBJECT_TYPE":"PAYLOAD","PERIAPSIS":"546.492","OBJECT_NAME":"STARLINK-2511","ELEMENT_SET_NO":"999","INCLINATION":"53.0552","ECCENTRICITY":"0.00008320","DECAY_DATE":null,"CENTER_NAME":"EARTH","RCS_SIZE":"LARGE","GP_ID":"232207878","MEAN_MOTION":"15.06447327","SITE":"AFETR","FILE":"3913175"},{"PERIAPSIS":"546.279","OBJECT_TYPE":"PAYLOAD","ARG_OF_PERICENTER":"88.3085","MEAN_MOTION_DOT":"0.00012012","DECAY_DATE":null,"CENTER_NAME":"EARTH","RCS_SIZE":"LARGE","INCLINATION":"53.0546","ECCENTRICITY":"0.00011600","SITE":"AFETR","FILE":"3913175","MEAN_MOTION":"15.06442939","GP_ID":"232208625","OBJECT_NAME":"STARLINK-2518","ELEMENT_SET_NO":"999","MEAN_MOTION_DDOT":"0.0000000000000","TLE_LINE1":"1 48333U 21036BK  23140.93760702  .00012012  00000-0  82296-3 0  9993","BSTAR":"0.00082296000000","MEAN_ELEMENT_THEORY":"SGP4","CLASSIFICATION_TYPE":"U","EPOCH":"2023-05-20T22:30:09.246528","TLE_LINE2":"2 48333  53.0546  17.4183 0001160  88.3085 271.8037 15.06442939113736","EPHEMERIS_TYPE":"0","PERIOD":"95.589","OBJECT_ID":"2021-036BK","LAUNCH_DATE":"2021-04-29","COUNTRY_CODE":"US","NORAD_CAT_ID":"48333","APOAPSIS":"547.885","RA_OF_ASC_NODE":"17.4183","TIME_SYSTEM":"UTC","REF_FRAME":"TEME","MEAN_ANOMALY":"271.8037","SEMIMAJOR_AXIS":"6925.217","REV_AT_EPOCH":"11373"},{"LAUNCH_DATE":"2021-04-29","NORAD_CAT_ID":"48334","APOAPSIS":"547.806","COUNTRY_CODE":"US","TIME_SYSTEM":"UTC","RA_OF_ASC_NODE":"17.4388","REF_FRAME":"TEME","SEMIMAJOR_AXIS":"6925.189","REV_AT_EPOCH":"11373","MEAN_ANOMALY":"269.4130","BSTAR":"0.00177850000000","TLE_LINE1":"1 48334U 21036BL  23140.93392661  .00026346  00000-0  17785-2 0  9994","MEAN_MOTION_DDOT":"0.0000000000000","MEAN_ELEMENT_THEORY":"SGP4","CLASSIFICATION_TYPE":"U","EPOCH":"2023-05-20T22:24:51.259104","TLE_LINE2":"2 48334  53.0549  17.4388 0001086  90.6983 269.4130 15.06451937113732","EPHEMERIS_TYPE":"0","PERIOD":"95.589","OBJECT_ID":"2021-036BL","CENTER_NAME":"EARTH","RCS_SIZE":"LARGE","DECAY_DATE":null,"ECCENTRICITY":"0.00010860","INCLINATION":"53.0549","FILE":"3913175","SITE":"AFETR","GP_ID":"232208874","MEAN_MOTION":"15.06451937","OBJECT_NAME":"STARLINK-2470","ELEMENT_SET_NO":"999","OBJECT_TYPE":"PAYLOAD","PERIAPSIS":"546.302","ARG_OF_PERICENTER":"90.6983","MEAN_MOTION_DOT":"0.00026346"},{"ARG_OF_PERICENTER":"88.2711","MEAN_MOTION_DOT":"0.00027842","OBJECT_TYPE":"PAYLOAD","PERIAPSIS":"546.250","OBJECT_NAME":"STARLINK-2441","ELEMENT_SET_NO":"999","ECCENTRICITY":"0.00011680","INCLINATION":"53.0555","DECAY_DATE":null,"RCS_SIZE":"LARGE","CENTER_NAME":"EARTH","GP_ID":"232207129","MEAN_MOTION":"15.06450485","SITE":"AFETR","FILE":"3913175","TLE_LINE2":"2 48335  53.0555  17.4517 0001168  88.2711 271.8412 15.06450485113734","EPOCH":"2023-05-20T22:19:33.114432","PERIOD":"95.589","OBJECT_ID":"2021-036BM","EPHEMERIS_TYPE":"0","BSTAR":"0.00187810000000","TLE_LINE1":"1 48335U 21036BM  23140.93024438  .00027842  00000-0  18781-2 0  9998","MEAN_MOTION_DDOT":"0.0000000000000","CLASSIFICATION_TYPE":"U","MEAN_ELEMENT_THEORY":"SGP4","RA_OF_ASC_NODE":"17.4517","TIME_SYSTEM":"UTC","MEAN_ANOMALY":"271.8412","REV_AT_EPOCH":"11373","SEMIMAJOR_AXIS":"6925.194","REF_FRAME":"TEME","COUNTRY_CODE":"US","NORAD_CAT_ID":"48335","APOAPSIS":"547.868","LAUNCH_DATE":"2021-04-29"},{"NORAD_CAT_ID":"48353","APOAPSIS":"547.799","COUNTRY_CODE":"US","LAUNCH_DATE":"2021-05-04","TIME_SYSTEM":"UTC","RA_OF_ASC_NODE":"278.0231","SEMIMAJOR_AXIS":"6925.166","REV_AT_EPOCH":"11270","MEAN_ANOMALY":"291.5007","REF_FRAME":"TEME","TLE_LINE1":"1 48353U 21038A   23140.80307660  .00032717  00000-0  22016-2 0  9990","MEAN_MOTION_DDOT":"0.0000000000000","BSTAR":"0.00220160000000","CLASSIFICATION_TYPE":"U","MEAN_ELEMENT_THEORY":"SGP4","TLE_LINE2":"2 48353  53.0544 278.0231 0001108  68.6100 291.5007 15.06459504112704","EPOCH":"2023-05-20T19:16:25.818240","OBJECT_ID":"2021-038A","PERIOD":"95.588","EPHEMERIS_TYPE":"0","ECCENTRICITY":"0.00011080","INCLINATION":"53.0544","RCS_SIZE":"LARGE","CENTER_NAME":"EARTH","DECAY_DATE":null,"MEAN_MOTION":"15.06459504","GP_ID":"232207880","FILE":"3913175","SITE":"AFETR","OBJECT_NAME":"STARLINK-2613","ELEMENT_SET_NO":"999","OBJECT_TYPE":"PAYLOAD","PERIAPSIS":"546.264","ARG_OF_PERICENTER":"68.6100","MEAN_MOTION_DOT":"0.00032717"},{"COUNTRY_CODE":"US","NORAD_CAT_ID":"48354","APOAPSIS":"547.747","LAUNCH_DATE":"2021-05-04","MEAN_ANOMALY":"293.7497","SEMIMAJOR_AXIS":"6925.179","REV_AT_EPOCH":"11268","REF_FRAME":"TEME","RA_OF_ASC_NODE":"278.6348","TIME_SYSTEM":"UTC","CLASSIFICATION_TYPE":"U","MEAN_ELEMENT_THEORY":"SGP4","BSTAR":"0.00181680000000","TLE_LINE1":"1 48354U 21038B   23140.66669450  .00026924  00000-0  18168-2 0  9999","MEAN_MOTION_DDOT":"0.0000000000000","OBJECT_ID":"2021-038B","PERIOD":"95.589","EPHEMERIS_TYPE":"0","TLE_LINE2":"2 48354  53.0540 278.6348 0001015  66.3598 293.7497 15.06455387112688","EPOCH":"2023-05-20T16:00:02.404800","GP_ID":"232208627","MEAN_MOTION":"15.06455387","SITE":"AFETR","FILE":"3913175","ECCENTRICITY":"0.00010150","INCLINATION":"53.0540","DECAY_DATE":null,"CENTER_NAME":"EARTH","RCS_SIZE":"LARGE","ELEMENT_SET_NO":"999","OBJECT_NAME":"STARLINK-2674","OBJECT_TYPE":"PAYLOAD","PERIAPSIS":"546.341","MEAN_MOTION_DOT":"0.00026924","ARG_OF_PERICENTER":"66.3598"},{"OBJECT_TYPE":"PAYLOAD","PERIAPSIS":"546.289","ARG_OF_PERICENTER":"77.6529","MEAN_MOTION_DOT":"0.00033657","RCS_SIZE":"LARGE","CENTER_NAME":"EARTH","DECAY_DATE":null,"INCLINATION":"53.0542","ECCENTRICITY":"0.00010570","FILE":"3913175","SITE":"AFETR","MEAN_MOTION":"15.06462943","GP_ID":"232208876","OBJECT_NAME":"STARLINK-2635","ELEMENT_SET_NO":"999","TLE_LINE1":"1 48355U 21038C   23140.79570029  .00033657  00000-0  22638-2 0  9995","BSTAR":"0.00226380000000","MEAN_MOTION_DDOT":"0.0000000000000","MEAN_ELEMENT_THEORY":"SGP4","CLASSIFICATION_TYPE":"U","EPOCH":"2023-05-20T19:05:48.505056","TLE_LINE2":"2 48355  53.0542 278.0567 0001057  77.6529 282.4578 15.06462943112707","EPHEMERIS_TYPE":"0","OBJECT_ID":"2021-038C","PERIOD":"95.588","LAUNCH_DATE":"2021-05-04","NORAD_CAT_ID":"48355","APOAPSIS":"547.753","COUNTRY_CODE":"US","TIME_SYSTEM":"UTC","RA_OF_ASC_NODE":"278.0567","REF_FRAME":"TEME","SEMIMAJOR_AXIS":"6925.156","REV_AT_EPOCH":"11270","MEAN_ANOMALY":"282.4578"},{"LAUNCH_DATE":"2021-05-04","APOAPSIS":"547.950","NORAD_CAT_ID":"48356","COUNTRY_CODE":"US","TIME_SYSTEM":"UTC","RA_OF_ASC_NODE":"278.6687","REF_FRAME":"TEME","REV_AT_EPOCH":"11268","SEMIMAJOR_AXIS":"6925.159","MEAN_ANOMALY":"286.2387","BSTAR":"0.00195870000000","TLE_LINE1":"1 48356U 21038D   23140.65933005  .00029063  00000-0  19587-2 0  9993","MEAN_MOTION_DDOT":"0.0000000000000","MEAN_ELEMENT_THEORY":"SGP4","CLASSIFICATION_TYPE":"U","EPOCH":"2023-05-20T15:49:26.116320","TLE_LINE2":"2 48356  53.0539 278.6687 0001337  73.8749 286.2387 15.06461836112683","EPHEMERIS_TYPE":"0","PERIOD":"95.588","OBJECT_ID":"2021-038D","CENTER_NAME":"EARTH","RCS_SIZE":"LARGE","DECAY_DATE":null,"INCLINATION":"53.0539","ECCENTRICITY":"0.00013370","FILE":"3913175","SITE":"AFETR","MEAN_MOTION":"15.06461836","GP_ID":"232207131","OBJECT_NAME":"STARLINK-2637","ELEMENT_SET_NO":"999","OBJECT_TYPE":"PAYLOAD","PERIAPSIS":"546.098","ARG_OF_PERICENTER":"73.8749","MEAN_MOTION_DOT":"0.00029063"},{"MEAN_MOTION_DOT":"0.00029617","ARG_OF_PERICENTER":"75.9854","PERIAPSIS":"546.200","OBJECT_TYPE":"PAYLOAD","ELEMENT_SET_NO":"999","OBJECT_NAME":"STARLINK-2636","SITE":"AFETR","FILE":"3913175","MEAN_MOTION":"15.06452697","GP_ID":"232207381","DECAY_DATE":null,"RCS_SIZE":"LARGE","CENTER_NAME":"EARTH","ECCENTRICITY":"0.00012300","INCLINATION":"53.0539","EPHEMERIS_TYPE":"0","PERIOD":"95.589","OBJECT_ID":"2021-038E","EPOCH":"2023-05-20T15:48:04.955616","TLE_LINE2":"2 48357  53.0539 278.6978 0001230  75.9854 284.1272 15.06452697112684","MEAN_ELEMENT_THEORY":"SGP4","CLASSIFICATION_TYPE":"U","BSTAR":"0.00199600000000","TLE_LINE1":"1 48357U 21038E   23140.65839069  .00029617  00000-0  19960-2 0  9999","MEAN_MOTION_DDOT":"0.0000000000000","REF_FRAME":"TEME","MEAN_ANOMALY":"284.1272","REV_AT_EPOCH":"11268","SEMIMAJOR_AXIS":"6925.187","RA_OF_ASC_NODE":"278.6978","TIME_SYSTEM":"UTC","LAUNCH_DATE":"2021-05-04","COUNTRY_CODE":"US","APOAPSIS":"547.904","NORAD_CAT_ID":"48357"}];
